39188,O3B FM5,2013,287.93,700.0,+,0.04,Active,1,MEO,French Guiana,O3b Networks,Commercial,Communications,Soyuz,1 39188U 13031A   24020.15882107 -.00000020  00000+0  00000+0 0  9998,2 39188   0.0377  18.7327 0002964 276.4286  64.8033  5.00114841193069,5.00114841,0.0002964,MEO
39189,O3B FM4,2013,287.93,700.0,+,0.06,Active,1,MEO,French Guiana,O3b Networks,Commercial,Communications,Soyuz,1 39189U 13031B   24020.21428678 -.00000020  00000+0  00000+0 0  9995,2 39189   0.0616   1.9792 0002938 293.6008  64.3850  5.00114824193085,5.00114824,0.0002938,MEO
39190,O3B FM2,2013,287.93,700.0,+,0.07,Active,1,MEO,French Guiana,O3b Networks,Commercial,Communications,Soyuz,1 39190U 13031C   24020.30641319 -.00000020  00000+0  00000+0 0  9996,2 39190   0.0669   0.9319 0002794 295.3986  63.6361  5.00115439193142,5.00115439,0.0002794,MEO
39191,O3B PFM,2013,287.93,700.0,+,0.04,Active,1,MEO,French Guiana,O3b Networks,Commercial,Communications,Soyuz,1 39191U 13031D   24020.33207884 -.00000020  00000+0  00000+0 0  9995,2 39191   0.0442   9.7337 0002637 289.9705  60.2648  5.00116128192701,5.00116128,0.0002637,MEO
40079,O3B FM3,2014,287.93,650.0,+,0.06,Active,1,MEO,French Guiana,O3b Networks,Commercial,Communications,Soyuz,1 40079U 14038A   24020.18643897 -.00000020  00000+0  00000+0 0  9991,2 40079   0.0550   5.4844 0002110 352.5666   1.9435  5.00116639169069,5.00116639,0.000211,MEO
40080,O3B FM7,2014,287.93,650.0,+,0.06,Active,1,MEO,French Guiana,O3b Networks,Commercial,Communications,Soyuz,1 40080U 14038B   24020.33310731 -.00000020  00000+0  00000+0 0  9998,2 40080   0.0592   7.0981 0003899 267.9783  84.8744  5.00115992173914,5.00115992,0.0003899,MEO
40081,O3B FM6,2014,287.93,650.0,+,0.06,Active,1,MEO,French Guiana,O3b Networks,Commercial,Communications,Soyuz,1 40081U 14038C   24020.35993722 -.00000020  00000+0  00000+0 0  9998,2 40081   0.0554   4.4304 0002661 294.5812  60.9570  5.00115252173863,5.00115252,0.0002661,MEO
40082,O3B FM8,2014,287.93,650.0,+,0.06,Active,1,MEO,French Guiana,O3b Networks,Commercial,Communications,Soyuz,1 40082U 14038D   24020.21356687 -.00000020  00000+0  00000+0 0  9997,2 40082   0.0563   5.0897 0002779 296.9530  57.9257  5.00115307173972,5.00115307,0.0002779,MEO
40348,O3B FM10,2014,287.93,650.0,+,0.05,Active,1,MEO,French Guiana,O3b Networks,Commercial,Communications,Soyuz,1 40348U 14083A   24020.24004318 -.00000020  00000+0  00000+0 0  9996,2 40348   0.0464   3.7654 0002691 294.9809  61.2220  5.00115361165927,5.00115361,0.0002691,MEO
40349,O3B FM11,2014,287.93,650.0,+,0.05,Active,1,MEO,French Guiana,O3b Networks,Commercial,Communications,Soyuz,1 40349U 14083B   24020.45318345 -.00000020  00000+0  00000+0 0  9998,2 40349   0.0475   9.3829 0002755 275.2648  75.3170  5.00115521165940,5.00115521,0.0002755,MEO
40350,O3B FM12,2014,287.93,650.0,+,0.05,Active,1,MEO,French Guiana,O3b Networks,Commercial,Communications,Soyuz,1 40350U 14083C   24020.48048070 -.00000020  00000+0  00000+0 0  9998,2 40350   0.0480   8.4387 0002572 289.1119  62.4186  5.00115498165960,5.00115498,0.0002572,MEO
40351,O3B FM9,2014,287.93,650.0,+,0.05,Active,1,MEO,French Guiana,O3b Networks,Commercial,Communications,Soyuz,1 40351U 14083D   24020.50706191 -.00000021  00000+0  00000+0 0  9998,2 40351   0.0475  10.8305 0002723 286.7611  62.3760  5.00114977166116,5.00114977,0.0002723,MEO
42783,DIAMOND RED,2017,92.21,6.0,+,97.12,Active,1,LEO,India,UK,Commercial,Technology Development,PSLV,1 42783U 17036U   24020.61608579  .00092362  00000+0  10517-2 0  9998,2 42783  97.1196  57.8949 0005461  46.3612 313.8099 15.61953176366450,15.61953176,0.0005461,LEO
42785,DIAMOND GREEN,2017,91.91,6.0,+,97.12,Active,1,LEO,India,UK,Commercial,Technology Development,PSLV,1 42785U 17036W   24020.60893499  .00121454  00000+0  11216-2 0  9998,2 42785  97.1157  58.7999 0004750  43.1687 316.9946 15.67182055366586,15.67182055,0.000475,LEO
42786,DIAMOND BLUE,2017,92.08,6.0,+,97.12,Active,1,LEO,India,UK,Commercial,Technology Development,PSLV,1 42786U 17036X   24020.62331718  .00108374  00000+0  11290-2 0  9990,2 42786  97.1199  58.3854 0005211  40.7846 319.3803 15.64188389366551,15.64188389,0.0005211,LEO
43113,LEO 1 (LEO VANTAGE 1),2018,98.72,100.0,P,99.28,Active,1,LEO,India,USA,Commercial,Communications,PSLV,1 43113U 18004C   24020.43324975  .00007251  00000+0  55512-3 0  9995,2 43113  99.2794 175.2964 0382688 237.7059 118.6533 14.58722093308926,14.58722093,0.0382688,LEO
43231,O3B FM15,2018,287.93,650.0,+,0.05,Active,1,MEO,French Guiana,O3b Networks,Commercial,Communications,Soyuz,1 43231U 18024A   24020.37334680 -.00000020  00000+0  00000+0 0  9991,2 43231   0.0455 359.6154 0002654 298.0372  62.3158  5.00114722107061,5.00114722,0.0002654,MEO
43232,O3B FM16,2018,287.93,650.0,+,0.04,Active,1,MEO,French Guiana,O3b Networks,Commercial,Communications,Soyuz,1 43232U 18024B   24020.22633523 -.00000020  00000+0  00000+0 0  9994,2 43232   0.0438 354.7830 0002677 302.1791  63.0059  5.00115191106975,5.00115191,0.0002677,MEO
43233,O3B FM14,2018,287.93,650.0,+,0.04,Active,1,MEO,French Guiana,O3b Networks,Commercial,Communications,Soyuz,1 43233U 18024C   24020.46622622 -.00000020  00000+0  00000+0 0  9999,2 43233   0.0439 352.6038 0002812 302.2988  65.0635  5.00115892106985,5.00115892,0.0002812,MEO
43234,O3B FM13,2018,287.93,650.0,+,0.05,Active,1,MEO,French Guiana,O3b Networks,Commercial,Communications,Soyuz,1 43234U 18024D   24020.32006275 -.00000020  00000+0  00000+0 0  9995,2 43234   0.0525  33.2631 0002082 261.6065  65.1041  5.00115335107105,5.00115335,0.0002082,MEO
44112,O3B FM20,2019,287.93,700.0,+,0.05,Active,1,MEO,French Guiana,O3b Networks,Commercial,Communications,Soyuz,1 44112U 19020A   24020.49291478 -.00000021  00000+0  00000+0 0  9998,2 44112   0.0470   3.3536 0002503 287.7721  68.8428  5.00115840 87611,5.0011584,0.0002503,MEO
44113,O3B FM19,2019,287.93,700.0,+,0.05,Active,1,MEO,French Guiana,O3b Networks,Commercial,Communications,Soyuz,1 44113U 19020B   24020.32005129 -.00000020  00000+0  00000+0 0  9996,2 44113   0.0467  16.4748 0003934 268.7961  74.6808  5.00115373 87474,5.00115373,0.0003934,MEO
44114,O3B FM17,2019,287.93,700.0,+,0.06,Active,1,MEO,French Guiana,O3b Networks,Commercial,Communications,Soyuz,1 44114U 19020C   24020.40010520 -.00000020  00000+0  00000+0 0  9997,2 44114   0.0598 346.8468 0002604 311.3994  61.7228  5.00116124 87561,5.00116124,0.0002604,MEO
44115,O3B FM18,2019,287.93,700.0,+,0.05,Active,1,MEO,French Guiana,O3b Networks,Commercial,Communications,Soyuz,1 44115U 19020D   24020.34654093 -.00000020  00000+0  00000+0 0  9990,2 44115   0.0467   3.7561 0002757 295.4694  60.7422  5.00116115 87686,5.00116115,0.0002757,MEO
46495,SALSAT,2020,95.33,12.0,+,97.8,Active,1,LEO,Russia,Germany,Civil,Space Science,Soyuz,1 46495U 20068K   24020.41807701  .00008278  00000+0  50442-3 0  9992,2 46495  97.7975 336.4648 0016354  99.4324 260.8754 15.10533015181835,15.10533015,0.0016354,LEO
54755,O3B MPOWER F1,2022,287.93,-1.0,P,0.06,Active,0,MEO,USA,O3b Networks,Unknown,Unknown,Falcon,1 54755U 22174A   24020.51258530 -.00000021  00000+0  00000+0 0  9991,2 54755   0.0592  12.2346 0006216 299.4005 209.3448  5.00118405 21407,5.00118405,0.0006216,MEO
54756,O3B MPOWER F2,2022,288.17,-1.0,P,0.06,Active,0,MEO,USA,O3b Networks,Unknown,Unknown,Falcon,1 54756U 22174B   24009.95962921 -.00000009  00000+0  00000+0 0  9999,2 54756   0.0605  11.3732 0006892 294.8293  53.7330  4.99697769 20952,4.99697769,0.0006892,MEO
56367,O3B MPOWER F4,2023,287.93,-1.0,P,0.04,Active,0,MEO,USA,O3b Networks,Unknown,Unknown,Falcon,1 56367U 23059A   24020.45634487 -.00000020  00000+0  00000+0 0  9996,2 56367   0.0427  17.7285 0007449 287.7916  54.4057  5.00114784 14635,5.00114784,0.0007449,MEO
56368,O3B MPOWER F3,2023,287.66,-1.0,P,0.04,Active,0,MEO,USA,O3b Networks,Unknown,Unknown,Falcon,1 56368U 23059B   24012.12893369 -.00000011  00000+0  00000+0 0  9998,2 56368   0.0421  15.3409 0010633 317.5968  27.0046  5.00591674 10356,5.00591674,0.0010633,MEO
